#aV2023 11 15  0  0  0.00000000     288 DD+AD WGS84 FIT  NGA
## 2288 259200.00000000   300.00000000 60263 0.0000000000000
+   32     1  2  3  4  5  6  7  8  9 10 11 12 13 14 15 16 17
+         18 19 20 21 22 23 24 25 26 27 28 29 30 31 32  0  0
+          0  0  0  0  0  0  0  0  0  0  0  0  0  0  0  0  0
+          0  0  0  0  0  0  0  0  0  0  0  0  0  0  0  0  0
+          0  0  0  0  0  0  0  0  0  0  0  0  0  0  0  0  0
++         2  2  2  2  2  2  2  2  2  2  2  2  2  2  2  2  2
++         2  2  2  2  2  2  2  2  2  2  2  2  2  2  2  0  0
++         0  0  0  0  0  0  0  0  0  0  0  0  0  0  0  0  0
++         0  0  0  0  0  0  0  0  0  0  0  0  0  0  0  0  0
++         0  0  0  0  0  0  0  0  0  0  0  0  0  0  0  0  0
%c cc cc ccc ccc cccc cccc cccc cccc ccccc ccccc ccccc ccccc
%c cc cc ccc ccc cccc cccc cccc cccc ccccc ccccc ccccc ccccc
%f  0.0000000  0.000000000  0.00000000000  0.000000000000000
%f  0.0000000  0.000000000  0.00000000000  0.000000000000000
%i    0    0    0    0      0      0      0      0         0
%i    0    0    0    0      0      0      0      0         0
/*      NGA, ST. LOUIS,MO.                                  
/*   EPHEMERIS COMPUTED FROM 2 DAYS OF DATA                 
/*   EPOCHA v8 SMOOTHER                                     
/*   G2139 IERS2010 SATIGS SATAPC                           
*  2023 11 15 20 35  0.00000000
P  1 -13056.891554 -13772.814254 -19068.443737    163.202435                    
V  1  23265.906585   1456.113026 -16966.913798      0.000463                    
P  2  -7116.281063 -14251.549156 -20784.602605   -528.506132                    
V  2  27499.989721   -937.315887  -8374.624706      0.050262                    
P  3 -12063.208593 -23706.742328    858.447664    -11.898036                    
V  3   1310.984482  -2031.481773 -32119.363467      0.255237                    
P  4  -5593.472747 -16214.642339  20250.876813    213.819615                    
V  4  16043.093822 -20141.768364 -11826.713874      0.104277                    
P  5   3705.034723  23476.584011  11583.151973   -150.509534                    
V  5  -9178.361281 -12088.599762  27108.433940     -0.014426                    
P  6 -22193.290210   6750.742499  13096.737825    505.025912                    
V  6 -16248.173940  -2828.511926 -26120.350137     -0.100641                    
P  7 -25435.472390  -6305.164383   6155.641473     12.584100                    
V  7   7287.896459  -2025.599681  29939.153217     -0.099103                    
P  8   1260.101613 -21737.878838 -14999.771692   -152.269260                    
V  8  12256.053900 -14827.089962  23041.401255     -0.018318                    
P  9 -14179.389727  -6041.559557  21547.224034     -1.937542                    
V  9  14718.266380 -23323.701473   3076.266671      0.112575                    
P 10  15167.214711  -1787.724759 -21580.877519    -61.523556                    
V 10  11862.563676  25085.918908   5884.362592     -0.014853                    
P 11 -11857.794894  12587.506559  20164.949029   -461.502160                    
V 11 -25241.090019  -4149.064516 -12315.781981     -0.162180                    
P 12   9449.888312  24862.737796   -710.792726   -447.354780                    
V 12  -2662.116816    456.871753 -31768.747634     -0.041001                    
P 13 -11781.149483  22048.891283  -8847.048888    595.640836                    
V 13  -9193.978867   6521.678118  29369.795602      0.041076                    
P 14 -16934.636201  -1927.142264 -20387.654217    244.214216                    
V 14  -9762.603737 -24055.936961  10199.000444      0.107575                    
P 15   2194.990641  21741.457381 -15432.456922     97.468905                    
V 15 -10538.779114  15906.999970  21819.049157      0.037488                    
P 16   3477.500710 -20909.929341  15395.866114   -421.470466                    
V 16   9369.041619  18156.845350  22539.687814      0.066503                    
P 17 -19739.230342   8536.831960 -15233.760577    723.206320                    
V 17  10821.486703 -16987.275443 -22763.352344     -0.003905                    
P 18  25898.050405   5014.765389   3872.265764   -480.053249                    
V 18  -5050.240189   1742.798510  31433.336121     -0.108706                    
P 19 -20202.648611  14706.231173  -8661.307950    399.383662                    
V 19   5052.719905  -9898.089898 -29577.930360      0.052195                    
P 20  -5402.426536  16827.289174  19928.443822    401.464470                    
V 20 -15608.810030 -19787.130678  12324.684065     -0.019350                    
P 21  -4007.847731 -14775.054322 -21273.877770    144.180484                    
V 21  28132.723536   -447.830760  -3969.261466     -0.010041                    
P 22 -13730.602688   5956.900399 -21500.761831     83.295788                    
V 22  -9956.944869 -26556.002065   -700.266736     -0.069899                    
P 23  18049.063652  11111.771381 -16109.959819     99.507558                    
V 23   8100.368842  18746.291923  21807.713209      0.063633                    
P 24   8566.825298  15083.598101 -20604.726165   -372.018795                    
V 24 -25265.362334   1333.750017  -9294.190587     -0.089381                    
P 25  16923.820470  17910.826799   9933.725775    477.535962                    
V 25   3505.993541  12799.517245 -27866.004196      0.016574                    
P 26   9610.941112 -13654.630668  20453.964558    216.407398                    
V 26  14281.000840  22299.918758   8485.164016     -0.026408                    
P 27  12122.537666 -23071.486276  -4014.993046    -70.399254                    
V 27   5167.290371  -2361.572138  31573.998103     -0.052628                    
P 28  23232.388805  -6741.391981  10944.300104    -46.966815                    
V 28  13828.707664   2972.350391 -27458.415985     -0.085574                    
P 29  13091.516466   7399.857679  21855.216033   -610.212140                    
V 29 -17182.805584  21863.983995   2784.577709      0.000730                    
P 30 -26299.230549   1172.502357  -4356.791692   -467.884061                    
V 30  -5381.815138  -3765.349602  30360.091449      0.040275                    
P 31  17276.873872 -10585.544062  17181.337995   -225.767959                    
V 31  21815.671185   3738.038842 -18997.259142     -0.003750                    
P 32  19235.313878 -12571.470904 -12950.772563   -586.099756                    
V 32  -7249.906065  15386.119972 -25549.237834     -0.044551                    
EOF
